{"type": "FeatureCollection", "features": [ {"type": "Feature", "properties": {"norad_id": 39620, "name": "COSMOS 2492 (754)", "group": "gnss", "lat": 61.59130745330699, "lon": 18.447754353832, "alt_km": 19143.572123721595, "timestamp": "2025-12-02T19:35:50.798770+00:00", "meta": {"OBJECT_NAME": "COSMOS 2492 (754)", "OBJECT_ID": "2014-012A", "EPOCH": "2025-12-02T05:58:46.596288", "MEAN_MOTION": 2.1310308, "ECCENTRICITY": 0.0014162, "INCLINATION": 65.4137, "RA_OF_ASC_NODE": 320.6266, "ARG_OF_PERICENTER": 310.9427, "MEAN_ANOMALY": 48.9426, "EPHEMERIS_TYPE": 0, "CLASSIFICATION_TYPE": "U", "NORAD_CAT_ID": 39620, "ELEMENT_SET_NO": 999, "REV_AT_EPOCH": 9104, "BSTAR": 0, "MEAN_MOTION_DOT": -3.3e-07, "MEAN_MOTION_DDOT": 0}, "tle": {"line1": "1 39620U 14012A   25336.24915042 -.00000033  00000+0  00000+0 0  9999", "line2": "2 39620  65.4137 320.6266 0014162 310.9427  48.9426  2.13103080 91048"}}, "geometry": {"type": "Point", "coordinates": [18.447754353832, 61.59130745330699]}}, {"type": "Feature", "properties": {"norad_id": 39635, "name": "IRNSS-1B", "group": "gnss", "lat": 1.4267523136012863, "lon": 61.191250814405926, "alt_km": 35710.75009625312, "timestamp": "2025-12-02T19:35:50.798781+00:00", "meta": {"OBJECT_NAME": "IRNSS-1B", "OBJECT_ID": "2014-017A", "EPOCH": "2025-11-28T20:06:06.175008", "MEAN_MOTION": 1.00274122, "ECCENTRICITY": 0.00176916, "INCLINATION": 28.849, "RA_OF_ASC_NODE": 243.8302, "ARG_OF_PERICENTER": 183.8746, "MEAN_ANOMALY": 356.8041, "EPHEMERIS_TYPE": 0, "CLASSIFICATION_TYPE": "U", "NORAD_CAT_ID": 39635, "ELEMENT_SET_NO": 999, "REV_AT_EPOCH": 4278, "BSTAR": 0, "MEAN_MOTION_DOT": 1.13e-06, "MEAN_MOTION_DDOT": 0}, "tle": {"line1": "1 39635U 14017A   25332.83757147  .00000113  00000+0  00000+0 0  9999", "line2": "2 39635  28.8490 243.8302 0017691 183.8746 356.8041  1.00274122 42789"}}, "geometry": {"type": "Point", "coordinates": [61.191250814405926, 1.4267523136012863]}}, {"type": "Feature", "properties": {"norad_id": 39727, "name": "LUCH 5V (SDCM/PRN 141)", "group": "gnss", "lat": 2.2656800201757474, "lon": 100.5402568248995, "alt_km": 35804.09065732726, "timestamp": "2025-12-02T19:35:50.798794+00:00", "meta": {"OBJECT_NAME": "LUCH 5V (SDCM/PRN 141)", "OBJECT_ID": "2014-023A", "EPOCH": "2025-12-02T07:23:09.301920", "MEAN_MOTION": 1.00272305, "ECCENTRICITY": 0.0004431, "INCLINATION": 4.6411, "RA_OF_ASC_NODE": 71.6272, "ARG_OF_PERICENTER": 197.954, "MEAN_ANOMALY": 7.3956, "EPHEMERIS_TYPE": 0, "CLASSIFICATION_TYPE": "U", "NORAD_CAT_ID": 39727, "ELEMENT_SET_NO": 999, "REV_AT_EPOCH": 4238, "BSTAR": 0, "MEAN_MOTION_DOT": -2.5e-06, "MEAN_MOTION_DDOT": 0}, "tle": {"line1": "1 39727U 14023A   25336.30774655 -.00000250  00000+0  00000+0 0  9990", "line2": "2 39727   4.6411  71.6272 0004431 197.9540   7.3956  1.00272305 42385"}}, "geometry": {"type": "Point", "coordinates": [100.5402568248995, 2.2656800201757474]}}, {"type": "Feature", "properties": {"norad_id": 39741, "name": "GPS BIIF-6  (PRN 06)", "group": "gnss", "lat": -26.191878320810144, "lon": 178.11349708677199, "alt_km": 20214.053220473346, "timestamp": "2025-12-02T19:35:50.798805+00:00", "meta": {"OBJECT_NAME": "GPS BIIF-6  (PRN 06)", "OBJECT_ID": "2014-026A", "EPOCH": "2025-12-02T00:33:52.471872", "MEAN_MOTION": 2.00561967, "ECCENTRICITY": 0.0038874, "INCLINATION": 56.5877, "RA_OF_ASC_NODE": 339.1935, "ARG_OF_PERICENTER": 318.1074, "MEAN_ANOMALY": 41.6257, "EPHEMERIS_TYPE": 0, "CLASSIFICATION_TYPE": "U", "NORAD_CAT_ID": 39741, "ELEMENT_SET_NO": 999, "REV_AT_EPOCH": 8458, "BSTAR": 0, "MEAN_MOTION_DOT": -5.7e-07, "MEAN_MOTION_DDOT": 0}, "tle": {"line1": "1 39741U 14026A   25336.02352398 -.00000057  00000+0  00000+0 0  9999", "line2": "2 39741  56.5877 339.1935 0038874 318.1074  41.6257  2.00561967 84587"}}, "geometry": {"type": "Point", "coordinates": [178.11349708677199, -26.191878320810144]}}, {"type": "Feature", "properties": {"norad_id": 40001, "name": "COSMOS 2500 (755)", "group": "gnss", "lat": -49.54782614883486, "lon": -72.23031738875014, "alt_km": 19133.110514201006, "timestamp": "2025-12-02T19:35:50.798817+00:00", "meta": {"OBJECT_NAME": "COSMOS 2500 (755)", "OBJECT_ID": "2014-032A", "EPOCH": "2025-12-01T22:51:13.641408", "MEAN_MOTION": 2.13105853, "ECCENTRICITY": 0.00082978, "INCLINATION": 65.3495, "RA_OF_ASC_NODE": 320.3998, "ARG_OF_PERICENTER": 219.081, "MEAN_ANOMALY": 140.8682, "EPHEMERIS_TYPE": 0, "CLASSIFICATION_TYPE": "U", "NORAD_CAT_ID": 40001, "ELEMENT_SET_NO": 999, "REV_AT_EPOCH": 8925, "BSTAR": 0, "MEAN_MOTION_DOT": -3.1e-07, "MEAN_MOTION_DDOT": 0}, "tle": {"line1": "1 40001U 14032A   25335.95224122 -.00000031  00000+0  00000+0 0  9993", "line2": "2 40001  65.3495 320.3998 0008297 219.0810 140.8682  2.13105853 89251"}}, "geometry": {"type": "Point", "coordinates": [-72.23031738875014, -49.54782614883486]}}, {"type": "Feature", "properties": {"norad_id": 40105, "name": "GPS BIIF-7  (PRN 09)", "group": "gnss", "lat": 24.60319450887549, "lon": -102.25815842150168, "alt_km": 20102.540583483482, "timestamp": "2025-12-02T19:35:50.798828+00:00", "meta": {"OBJECT_NAME": "GPS BIIF-7  (PRN 09)", "OBJECT_ID": "2014-045A", "EPOCH": "2025-12-01T02:44:59.048448", "MEAN_MOTION": 2.00571745, "ECCENTRICITY": 0.00329481, "INCLINATION": 55.2216, "RA_OF_ASC_NODE": 96.3629, "ARG_OF_PERICENTER": 119.5842, "MEAN_ANOMALY": 240.7262, "EPHEMERIS_TYPE": 0, "CLASSIFICATION_TYPE": "U", "NORAD_CAT_ID": 40105, "ELEMENT_SET_NO": 999, "REV_AT_EPOCH": 8210, "BSTAR": 0, "MEAN_MOTION_DOT": 1.8e-07, "MEAN_MOTION_DDOT": 0}, "tle": {"line1": "1 40105U 14045A   25335.11457232  .00000018  00000+0  00000+0 0  9994", "line2": "2 40105  55.2216  96.3629 0032948 119.5842 240.7262  2.00571745 82109"}}, "geometry": {"type": "Point", "coordinates": [-102.25815842150168, 24.60319450887549]}}, {"type": "Feature", "properties": {"norad_id": 40128, "name": "GSAT0201 (GALILEO 5)", "group": "gnss", "lat": 45.52902277456046, "lon": -16.64546913568705, "alt_km": 21721.896655867455, "timestamp": "2025-12-02T19:35:50.798840+00:00", "meta": {"OBJECT_NAME": "GSAT0201 (GALILEO 5)", "OBJECT_ID": "2014-050A", "EPOCH": "2025-11-28T09:00:06.762528", "MEAN_MOTION": 1.85519533, "ECCENTRICITY": 0.16464881, "INCLINATION": 49.0938, "RA_OF_ASC_NODE": 281.6492, "ARG_OF_PERICENTER": 171.7362, "MEAN_ANOMALY": 191.3851, "EPHEMERIS_TYPE": 0, "CLASSIFICATION_TYPE": "U", "NORAD_CAT_ID": 40128, "ELEMENT_SET_NO": 999, "REV_AT_EPOCH": 7459, "BSTAR": 0, "MEAN_MOTION_DOT": -4.8e-07, "MEAN_MOTION_DDOT": 0}, "tle": {"line1": "1 40128U 14050A   25332.37507827 -.00000048  00000+0  00000+0 0  9990", "line2": "2 40128  49.0938 281.6492 1646488 171.7362 191.3851  1.85519533 74599"}}, "geometry": {"type": "Point", "coordinates": [-16.64546913568705, 45.52902277456046]}}, {"type": "Feature", "properties": {"norad_id": 40129, "name": "GSAT0202 (GALILEO 6)", "group": "gnss", "lat": -43.1876317956409, "lon": -133.81350579974955, "alt_km": 23497.381874169474, "timestamp": "2025-12-02T19:35:50.798857+00:00", "meta": {"OBJECT_NAME": "GSAT0202 (GALILEO 6)", "OBJECT_ID": "2014-050B", "EPOCH": "2025-11-29T17:01:27.924672", "MEAN_MOTION": 1.85520097, "ECCENTRICITY": 0.1647266, "INCLINATION": 49.1079, "RA_OF_ASC_NODE": 280.6784, "ARG_OF_PERICENTER": 172.5408, "MEAN_ANOMALY": 190.2825, "EPHEMERIS_TYPE": 0, "CLASSIFICATION_TYPE": "U", "NORAD_CAT_ID": 40129, "ELEMENT_SET_NO": 999, "REV_AT_EPOCH": 7678, "BSTAR": 0, "MEAN_MOTION_DOT": -5.4e-07, "MEAN_MOTION_DDOT": 0}, "tle": {"line1": "1 40129U 14050B   25333.70935098 -.00000054  00000+0  00000+0 0  9991", "line2": "2 40129  49.1079 280.6784 1647266 172.5408 190.2825  1.85520097 76784"}}, "geometry": {"type": "Point", "coordinates": [-133.81350579974955, -43.1876317956409]}}, {"type": "Feature", "properties": {"norad_id": 40269, "name": "IRNSS-1C", "group": "gnss", "lat": -0.3976242543843204, "lon": 88.82233461100158, "alt_km": 35711.755830824855, "timestamp": "2025-12-02T19:35:50.798870+00:00", "meta": {"OBJECT_NAME": "IRNSS-1C", "OBJECT_ID": "2014-061A", "EPOCH": "2025-12-02T07:19:54.613344", "MEAN_MOTION": 1.00269394, "ECCENTRICITY": 0.0017878, "INCLINATION": 6.0144, "RA_OF_ASC_NODE": 92.8297, "ARG_OF_PERICENTER": 2.8154, "MEAN_ANOMALY": 168.7168, "EPHEMERIS_TYPE": 0, "CLASSIFICATION_TYPE": "U", "NORAD_CAT_ID": 40269, "ELEMENT_SET_NO": 999, "REV_AT_EPOCH": 4071, "BSTAR": 0, "MEAN_MOTION_DOT": -1.41e-06, "MEAN_MOTION_DDOT": 0}, "tle": {"line1": "1 40269U 14061A   25336.30549321 -.00000141  00000+0  00000+0 0  9994", "line2": "2 40269   6.0144  92.8297 0017878   2.8154 168.7168  1.00269394 40719"}}, "geometry": {"type": "Point", "coordinates": [88.82233461100158, -0.3976242543843204]}}, {"type": "Feature", "properties": {"norad_id": 40294, "name": "GPS BIIF-8  (PRN 03)", "group": "gnss", "lat": -45.45726919685087, "lon": -99.90276558964173, "alt_km": 20346.098600403642, "timestamp": "2025-12-02T19:35:50.798881+00:00", "meta": {"OBJECT_NAME": "GPS BIIF-8  (PRN 03)", "OBJECT_ID": "2014-068A", "EPOCH": "2025-12-01T11:46:15.010464", "MEAN_MOTION": 2.00563998, "ECCENTRICITY": 0.00608279, "INCLINATION": 56.849, "RA_OF_ASC_NODE": 38.5813, "ARG_OF_PERICENTER": 69.4379, "MEAN_ANOMALY": 291.2622, "EPHEMERIS_TYPE": 0, "CLASSIFICATION_TYPE": "U", "NORAD_CAT_ID": 40294, "ELEMENT_SET_NO": 999, "REV_AT_EPOCH": 8124, "BSTAR": 0, "MEAN_MOTION_DOT": -6.4e-07, "MEAN_MOTION_DDOT": 0}, "tle": {"line1": "1 40294U 14068A   25335.49045151 -.00000064  00000+0  00000+0 0  9994", "line2": "2 40294  56.8490  38.5813 0060827  69.4379 291.2622  2.00563998 81243"}}, "geometry": {"type": "Point", "coordinates": [-99.90276558964173, -45.45726919685087]}}]}